{"type": "FeatureCollection", "features": [ {"type": "Feature", "properties": {"norad_id": 66561, "name": "STARLINK-35305", "group": "last-30-days", "lat": -32.50685414884237, "lon": 59.73594573753438, "alt_km": 416.1929416761259, "timestamp": "2025-12-15T20:48:52.613515+00:00", "meta": {"OBJECT_NAME": "STARLINK-35305", "OBJECT_ID": "2025-268E", "EPOCH": "2025-12-14T09:29:03.790464", "MEAN_MOTION": 15.50595766, "ECCENTRICITY": 0.00016653, "INCLINATION": 43, "RA_OF_ASC_NODE": 111.4952, "ARG_OF_PERICENTER": 263.4795, "MEAN_ANOMALY": 96.5876, "EPHEMERIS_TYPE": 0, "CLASSIFICATION_TYPE": "U", "NORAD_CAT_ID": 66561, "ELEMENT_SET_NO": 999, "REV_AT_EPOCH": 488, "BSTAR": 0.0014529464, "MEAN_MOTION_DOT": 0.00085888, "MEAN_MOTION_DDOT": 0}, "tle": {"line1": "1 66561U 25268E   25348.39518276  .00085888  00000+0  14529-2 0  9999", "line2": "2 66561  43.0000 111.4952 0001665 263.4795  96.5876 15.50595766  4880"}}, "geometry": {"type": "Point", "coordinates": [59.73594573753438, -32.50685414884237]}}, {"type": "Feature", "properties": {"norad_id": 66562, "name": "STARLINK-35579", "group": "last-30-days", "lat": -33.463053869510766, "lon": 57.706295775289625, "alt_km": 416.2079349691121, "timestamp": "2025-12-15T20:48:52.613525+00:00", "meta": {"OBJECT_NAME": "STARLINK-35579", "OBJECT_ID": "2025-268F", "EPOCH": "2025-12-14T09:29:33.423072", "MEAN_MOTION": 15.50596687, "ECCENTRICITY": 0.0001537, "INCLINATION": 43, "RA_OF_ASC_NODE": 111.4966, "ARG_OF_PERICENTER": 283.1897, "MEAN_ANOMALY": 76.8791, "EPHEMERIS_TYPE": 0, "CLASSIFICATION_TYPE": "U", "NORAD_CAT_ID": 66562, "ELEMENT_SET_NO": 999, "REV_AT_EPOCH": 488, "BSTAR": 0.0013652976, "MEAN_MOTION_DOT": 0.00080634, "MEAN_MOTION_DDOT": 0}, "tle": {"line1": "1 66562U 25268F   25348.39552573  .00080634  00000+0  13653-2 0  9999", "line2": "2 66562  43.0000 111.4966 0001537 283.1897  76.8791 15.50596687  4886"}}, "geometry": {"type": "Point", "coordinates": [57.706295775289625, -33.463053869510766]}}, {"type": "Feature", "properties": {"norad_id": 66563, "name": "STARLINK-35437", "group": "last-30-days", "lat": -31.501246263871547, "lon": 61.75210506527728, "alt_km": 416.14117732568957, "timestamp": "2025-12-15T20:48:52.613538+00:00", "meta": {"OBJECT_NAME": "STARLINK-35437", "OBJECT_ID": "2025-268G", "EPOCH": "2025-12-14T09:28:34.176864", "MEAN_MOTION": 15.50599771, "ECCENTRICITY": 0.00016075, "INCLINATION": 42.9994, "RA_OF_ASC_NODE": 111.4909, "ARG_OF_PERICENTER": 261.4336, "MEAN_ANOMALY": 98.6342, "EPHEMERIS_TYPE": 0, "CLASSIFICATION_TYPE": "U", "NORAD_CAT_ID": 66563, "ELEMENT_SET_NO": 999, "REV_AT_EPOCH": 488, "BSTAR": 0.0015648949, "MEAN_MOTION_DOT": 0.00092625, "MEAN_MOTION_DDOT": 0}, "tle": {"line1": "1 66563U 25268G   25348.39484001  .00092625  00000+0  15649-2 0  9990", "line2": "2 66563  42.9994 111.4909 0001607 261.4336  98.6342 15.50599771  4880"}}, "geometry": {"type": "Point", "coordinates": [61.75210506527728, -31.501246263871547]}}, {"type": "Feature", "properties": {"norad_id": 66564, "name": "STARLINK-35358", "group": "last-30-days", "lat": -30.479786037200917, "lon": 63.69768011891181, "alt_km": 416.28768385828334, "timestamp": "2025-12-15T20:48:52.613548+00:00", "meta": {"OBJECT_NAME": "STARLINK-35358", "OBJECT_ID": "2025-268H", "EPOCH": "2025-12-14T09:28:04.327392", "MEAN_MOTION": 15.50612702, "ECCENTRICITY": 0.00011901, "INCLINATION": 42.9991, "RA_OF_ASC_NODE": 111.4875, "ARG_OF_PERICENTER": 265.2682, "MEAN_ANOMALY": 94.8042, "EPHEMERIS_TYPE": 0, "CLASSIFICATION_TYPE": "U", "NORAD_CAT_ID": 66564, "ELEMENT_SET_NO": 999, "REV_AT_EPOCH": 488, "BSTAR": 0.0014790939, "MEAN_MOTION_DOT": 0.0008751, "MEAN_MOTION_DDOT": 0}, "tle": {"line1": "1 66564U 25268H   25348.39449453  .00087510  00000+0  14791-2 0  9997", "line2": "2 66564  42.9991 111.4875 0001190 265.2682  94.8042 15.50612702  4888"}}, "geometry": {"type": "Point", "coordinates": [63.69768011891181, -30.479786037200917]}}, {"type": "Feature", "properties": {"norad_id": 66565, "name": "STARLINK-35893", "group": "last-30-days", "lat": -29.458261402061474, "lon": 65.5541301414927, "alt_km": 416.53073070033133, "timestamp": "2025-12-15T20:48:52.613560+00:00", "meta": {"OBJECT_NAME": "STARLINK-35893", "OBJECT_ID": "2025-268J", "EPOCH": "2025-12-14T09:27:34.947072", "MEAN_MOTION": 15.50617193, "ECCENTRICITY": 5.449e-05, "INCLINATION": 42.9994, "RA_OF_ASC_NODE": 111.4854, "ARG_OF_PERICENTER": 325.9619, "MEAN_ANOMALY": 34.1206, "EPHEMERIS_TYPE": 0, "CLASSIFICATION_TYPE": "U", "NORAD_CAT_ID": 66565, "ELEMENT_SET_NO": 999, "REV_AT_EPOCH": 488, "BSTAR": 0.0014479257, "MEAN_MOTION_DOT": 0.00085652, "MEAN_MOTION_DDOT": 0}, "tle": {"line1": "1 66565U 25268J   25348.39415448  .00085652  00000+0  14479-2 0  9993", "line2": "2 66565  42.9994 111.4854 0000544 325.9619  34.1206 15.50617193  4883"}}, "geometry": {"type": "Point", "coordinates": [65.5541301414927, -29.458261402061474]}}, {"type": "Feature", "properties": {"norad_id": 66566, "name": "STARLINK-35871", "group": "last-30-days", "lat": -28.36906678291242, "lon": 67.44331529748517, "alt_km": 416.09582805238733, "timestamp": "2025-12-15T20:48:52.613571+00:00", "meta": {"OBJECT_NAME": "STARLINK-35871", "OBJECT_ID": "2025-268K", "EPOCH": "2025-12-14T09:27:04.631040", "MEAN_MOTION": 15.50620861, "ECCENTRICITY": 0.0001485, "INCLINATION": 42.9993, "RA_OF_ASC_NODE": 111.4823, "ARG_OF_PERICENTER": 258.6406, "MEAN_ANOMALY": 101.4287, "EPHEMERIS_TYPE": 0, "CLASSIFICATION_TYPE": "U", "NORAD_CAT_ID": 66566, "ELEMENT_SET_NO": 999, "REV_AT_EPOCH": 488, "BSTAR": 0.0014564171, "MEAN_MOTION_DOT": 0.00086174, "MEAN_MOTION_DDOT": 0}, "tle": {"line1": "1 66566U 25268K   25348.39380360  .00086174  00000+0  14564-2 0  9993", "line2": "2 66566  42.9993 111.4823 0001485 258.6406 101.4287 15.50620861  4883"}}, "geometry": {"type": "Point", "coordinates": [67.44331529748517, -28.36906678291242]}}, {"type": "Feature", "properties": {"norad_id": 66567, "name": "STARLINK-35825", "group": "last-30-days", "lat": -27.4723061327568, "lon": 68.9381573133469, "alt_km": 415.7496968576934, "timestamp": "2025-12-15T20:48:52.613581+00:00", "meta": {"OBJECT_NAME": "STARLINK-35825", "OBJECT_ID": "2025-268L", "EPOCH": "2025-12-14T15:37:37.032384", "MEAN_MOTION": 15.50612178, "ECCENTRICITY": 0.00019681, "INCLINATION": 42.9994, "RA_OF_ASC_NODE": 109.972, "ARG_OF_PERICENTER": 277.0359, "MEAN_ANOMALY": 83.0278, "EPHEMERIS_TYPE": 0, "CLASSIFICATION_TYPE": "U", "NORAD_CAT_ID": 66567, "ELEMENT_SET_NO": 999, "REV_AT_EPOCH": 492, "BSTAR": 0.0014539761, "MEAN_MOTION_DOT": 0.00086002, "MEAN_MOTION_DDOT": 0}, "tle": {"line1": "1 66567U 25268L   25348.65112306  .00086002  00000+0  14540-2 0  9990", "line2": "2 66567  42.9994 109.9720 0001968 277.0359  83.0278 15.50612178  4923"}}, "geometry": {"type": "Point", "coordinates": [68.9381573133469, -27.4723061327568]}}, {"type": "Feature", "properties": {"norad_id": 66568, "name": "STARLINK-35803", "group": "last-30-days", "lat": -26.259894362453753, "lon": 70.88075666436683, "alt_km": 416.28828966858055, "timestamp": "2025-12-15T20:48:52.613593+00:00", "meta": {"OBJECT_NAME": "STARLINK-35803", "OBJECT_ID": "2025-268M", "EPOCH": "2025-12-14T09:26:05.830656", "MEAN_MOTION": 15.50616761, "ECCENTRICITY": 7.829e-05, "INCLINATION": 42.9994, "RA_OF_ASC_NODE": 111.4761, "ARG_OF_PERICENTER": 273.2649, "MEAN_ANOMALY": 86.8122, "EPHEMERIS_TYPE": 0, "CLASSIFICATION_TYPE": "U", "NORAD_CAT_ID": 66568, "ELEMENT_SET_NO": 999, "REV_AT_EPOCH": 488, "BSTAR": 0.0013254271, "MEAN_MOTION_DOT": 0.00078301, "MEAN_MOTION_DDOT": 0}, "tle": {"line1": "1 66568U 25268M   25348.39312304  .00078301  00000+0  13254-2 0  9996", "line2": "2 66568  42.9994 111.4761 0000782 273.2649  86.8122 15.50616761  4886"}}, "geometry": {"type": "Point", "coordinates": [70.88075666436683, -26.259894362453753]}}, {"type": "Feature", "properties": {"norad_id": 66569, "name": "STARLINK-35835", "group": "last-30-days", "lat": -25.137986849161308, "lon": 72.60901901276438, "alt_km": 415.91435222981636, "timestamp": "2025-12-15T20:48:52.613603+00:00", "meta": {"OBJECT_NAME": "STARLINK-35835", "OBJECT_ID": "2025-268N", "EPOCH": "2025-12-14T09:25:36.244704", "MEAN_MOTION": 15.50611143, "ECCENTRICITY": 0.00011191, "INCLINATION": 42.9996, "RA_OF_ASC_NODE": 111.4742, "ARG_OF_PERICENTER": 287.3319, "MEAN_ANOMALY": 72.7418, "EPHEMERIS_TYPE": 0, "CLASSIFICATION_TYPE": "U", "NORAD_CAT_ID": 66569, "ELEMENT_SET_NO": 999, "REV_AT_EPOCH": 488, "BSTAR": 0.0014189075, "MEAN_MOTION_DOT": 0.00083891, "MEAN_MOTION_DDOT": 0}, "tle": {"line1": "1 66569U 25268N   25348.39278061  .00083891  00000+0  14189-2 0  9996", "line2": "2 66569  42.9996 111.4742 0001119 287.3319  72.7418 15.50611143  4884"}}, "geometry": {"type": "Point", "coordinates": [72.60901901276438, -25.137986849161308]}}, {"type": "Feature", "properties": {"norad_id": 66570, "name": "STARLINK-35834", "group": "last-30-days", "lat": -24.036120064477142, "lon": 74.24601836789145, "alt_km": 416.01342295561244, "timestamp": "2025-12-15T20:48:52.613615+00:00", "meta": {"OBJECT_NAME": "STARLINK-35834", "OBJECT_ID": "2025-268P", "EPOCH": "2025-12-14T09:25:06.706272", "MEAN_MOTION": 15.50607829, "ECCENTRICITY": 0.0001004, "INCLINATION": 42.9998, "RA_OF_ASC_NODE": 111.471, "ARG_OF_PERICENTER": 278.2632, "MEAN_ANOMALY": 81.8115, "EPHEMERIS_TYPE": 0, "CLASSIFICATION_TYPE": "U", "NORAD_CAT_ID": 66570, "ELEMENT_SET_NO": 999, "REV_AT_EPOCH": 488, "BSTAR": 0.0013365785, "MEAN_MOTION_DOT": 0.00078944, "MEAN_MOTION_DDOT": 0}, "tle": {"line1": "1 66570U 25268P   25348.39243873  .00078944  00000+0  13366-2 0  9990", "line2": "2 66570  42.9998 111.4710 0001004 278.2632  81.8115 15.50607829  4884"}}, "geometry": {"type": "Point", "coordinates": [74.24601836789145, -24.036120064477142]}}]}